{"type": "FeatureCollection", "name": "UB_Districts", "features": [{"type": "Feature", "properties": {"aimag_code": 11, "sum_code": 1116, "name_mn": "Сонгинохайрхан", "name_en": "Songinoxairxan"}, "geometry": {"type": "Polygon", "coordinates": [[[106.87455749548322, 48.185291290492664], [106.87355804486303, 48.184036254914574], [106.8716049199624, 48.17728424032452], [106.8702545163132, 48.1709823606427], [106.86832427996247, 48.153144835982545], [106.86830139175142, 48.15297698970172], [106.8472976683459, 48.125522613377015], [106.83071899448855, 48.10399246255271], [106.83807373084963, 48.08613586446711], [106.85089874271078, 48.05170440684299], [106.85404968195812, 48.04405212374466], [106.8628311151275, 48.021469116380565], [106.85937500055202, 48.003616333099885], [106.8561477660256, 47.98268508942698], [106.86560058641902, 47.968883514760016], [106.86440277146022, 47.96168136602775], [106.86297607359295, 47.95005416863182], [106.88758087109741, 47.94029998797073], [106.87619018598294, 47.94186782836839], [106.86382293640868, 47.94333267175395], [106.85975646981312, 47.943332672149914], [106.85633850101677, 47.942356109713664], [106.85471344025152, 47.9412155153186], [106.85340881303834, 47.93812561006363], [106.85276031430752, 47.93145370454082], [106.8524322508582, 47.92462158173345], [106.85308074977027, 47.915672302433926], [106.85332489037577, 47.91249847393988], [106.83380126994136, 47.910869598445444], [106.82192230219145, 47.90989303545067], [106.81085968021402, 47.90924453700834], [106.80792999312614, 47.90973281893016], [106.80288696239072, 47.910545349543106], [106.80061340387478, 47.910709381143825], [106.79882049589887, 47.90956878662078], [106.79784393330736, 47.90810394327785], [106.79231262229305, 47.907127380132366], [106.7864532474538, 47.90631484954425], [106.78580474892841, 47.90387344359796], [106.78471374545362, 47.87412261969182], [106.77902221654992, 47.87527847269159], [106.77494049115974, 47.876220703145414], [106.77222442565262, 47.87632369976889], [106.76846313446283, 47.87590789783384], [106.76428222631768, 47.87559127770343], [106.76031494169565, 47.876533507969064], [106.7550888059213, 47.87831115690051], [106.75222015444974, 47.8784675598673], [106.74699401857086, 47.87648010285429], [106.73664855957118, 47.875957488664554], [106.7293319696737, 47.875331878931455], [106.7227478031416, 47.873554230044654], [106.71412658681885, 47.870994567768825], [106.70964050311885, 47.86974334674214], [106.70368194515105, 47.867443084367906], [106.6981430055083, 47.86608505265089], [106.69041442935585, 47.86597824094185], [106.68288421618648, 47.86786270145777], [106.67453002975576, 47.87162399334166], [106.67196655271825, 47.8723030093774], [106.66256713830803, 47.87387084921857], [106.65848541197452, 47.874076843178514], [106.6477279668569, 47.874183654524096], [106.63842773462493, 47.87104797345291], [106.63001251205306, 47.869220733495844], [106.61830902155485, 47.85835266114794], [106.61318969712536, 47.850830077795855], [106.59652709967594, 47.849941253785], [106.58377838072252, 47.84941864039282], [106.54448699998872, 47.84722518921015], [106.53958129866558, 47.84730148347484], [106.51937866151488, 47.87092590324712], [106.51599883976392, 47.889732360902954], [106.5172805785781, 47.891387939854056], [106.53319549612822, 47.91062164294198], [106.52706909127575, 47.91876220716353], [106.50615692132588, 47.94585418702717], [106.52762603807767, 47.95499420209019], [106.50071716277874, 47.969886780045876], [106.49767303533523, 47.97008132938483], [106.49044036860614, 47.97470092736642], [106.48561859164238, 47.97758102408719], [106.48148345909627, 47.98021697965223], [106.48117828361876, 47.98065185531841], [106.4787521367589, 47.98402786285797], [106.47525787302301, 47.98904800390029], [106.4710922243382, 47.99531936681066], [106.46760559145643, 47.99983596787645], [106.46751403845772, 48.00046157808619], [106.46754455538326, 48.00161743140276], [106.4589920042675, 48.012939453497225], [106.45985412638179, 48.02628707864945], [106.46098327626417, 48.04057311983206], [106.46466827337993, 48.04775619469007], [106.47784423865629, 48.072181701873625], [106.47142791710802, 48.07767486550512], [106.46192169136832, 48.09180068990933], [106.45662689223379, 48.09719848651675], [106.45048522887645, 48.10139083843358], [106.43683624217638, 48.11275482164879], [106.43552398651111, 48.11474990888081], [106.42713165334129, 48.12414550744234], [106.4160232548923, 48.133491515866595], [106.42603301940699, 48.14540100107644], [106.4282531738954, 48.14811706521843], [106.4191513058078, 48.16878891022038], [106.40966796940668, 48.191745757760096], [106.40740966816445, 48.1968002319158], [106.39186096131174, 48.215572357599775], [106.37277984627163, 48.238945006887334], [106.36716461154728, 48.246395111048905], [106.36306762691154, 48.25735855063054], [106.37979125951455, 48.26028823835777], [106.4001007079079, 48.263999938778355], [106.42975616452667, 48.26971817007058], [106.44167327927316, 48.27207565280658], [106.45246887217658, 48.26402664198945], [106.47241210941216, 48.25959014894078], [106.4937438960231, 48.25480270389821], [106.4998855589872, 48.25308227584117], [106.5063018803162, 48.252288818581896], [106.5548629763217, 48.24793624914629], [106.59073638887764, 48.244445800759], [106.6060104366931, 48.235225677666925], [106.61295318651017, 48.23163223295134], [106.65385436945942, 48.236751556251164], [106.65820312536988, 48.23719024668782], [106.67837524404821, 48.23089218145086], [106.7052841180102, 48.22969436614325], [106.74460601866109, 48.22780227660753], [106.75667571958624, 48.2263183594614], [106.77752685548933, 48.222999572645925], [106.80612182675434, 48.21855163582725], [106.82400512643382, 48.215866089217116], [106.8549346923637, 48.19746017426032], [106.87455749548322, 48.185291290492664]]]}}, {"type": "Feature", "properties": {"aimag_code": 11, "sum_code": 1110, "name_mn": "Баянзүрх", "name_en": "Bayanzurx"}, "geometry": {"type": "Polygon", "coordinates": [[[107.08177184992694, 48.208026885981035], [107.11276245145244, 48.17440032946153], [107.125671386394, 48.17115783710832], [107.15448761050159, 48.16444015482521], [107.16097259492682, 48.162643432807855], [107.1915817264004, 48.14510726904504], [107.19782257042603, 48.14097595180873], [107.2231597902125, 48.13513946508541], [107.23483276426914, 48.124885559115405], [107.25168609590733, 48.109687805071886], [107.26425170956892, 48.10041809113366], [107.29280090281097, 48.07862854027589], [107.318504333444, 48.0609855648313], [107.32324981750362, 48.057376861392655], [107.34446716289303, 48.03589630166858], [107.35783386268238, 48.01390075664985], [107.36557769828794, 48.00199508682228], [107.36674499506324, 48.00008010855554], [107.36969757017849, 47.99544143653045], [107.37235260063898, 47.990135192462034], [107.37276458778011, 47.990165710831654], [107.37164306625962, 47.98628616333102], [107.37005615215534, 47.98113632183926], [107.36411285456659, 47.96171951289241], [107.37347412044132, 47.957908630734586], [107.41077423096756, 47.942108154211546], [107.40531921325956, 47.93645858768427], [107.38922882075268, 47.918777465557135], [107.37158966024148, 47.90134429919101], [107.36956024184025, 47.89584350600369], [107.36272430413133, 47.878311157446895], [107.33880615216216, 47.86805725057866], [107.31740570101324, 47.858646392992235], [107.31240081763677, 47.84799957243573], [107.30116272029682, 47.82348251344894], [107.29115295425342, 47.80158996591302], [107.26356506411162, 47.807384490920974], [107.23107147251427, 47.81431961018243], [107.22824859645158, 47.80554962146131], [107.21958160350664, 47.77865600626869], [107.22631835988611, 47.76082611097955], [107.22577667264768, 47.75899124186217], [107.22260284372607, 47.74740219116189], [107.21603393487243, 47.72408294643568], [107.18138122581271, 47.746101379262775], [107.11890411372754, 47.722694396818106], [107.0389709469928, 47.720611572284675], [107.03153991687294, 47.73508453343791], [106.9630432131197, 47.7431678774749], [106.94680786118803, 47.75986480723297], [106.94653320289021, 47.75978851277146], [106.94317627019123, 47.779251098752106], [106.93914794896033, 47.80438232403109], [106.93695831259993, 47.81880188024118], [106.94223022435125, 47.831081390122385], [106.95116424589474, 47.851924896250175], [106.95618438682452, 47.862480163651234], [106.94442748977542, 47.88029479981797], [106.93460846010416, 47.8950271607647], [106.9249343867711, 47.90892028798852], [106.92966461185256, 47.90903472862993], [106.9278869626162, 47.91775894155781], [106.93083190921811, 47.92047882110734], [106.93108367857566, 47.929672241396915], [106.92913818309322, 47.93445205685389], [106.92716217073838, 47.94009017902295], [106.92505645806214, 47.943088531449845], [106.92549896304304, 47.946533203042186], [106.92710876413625, 47.950420379657444], [106.92874908466172, 47.951004028475054], [106.92607879610033, 47.96255874640474], [106.93157959023168, 47.964115142991275], [106.93341064490804, 47.96461486775547], [106.93738555879123, 47.966419219930984], [106.94094085633493, 47.96792221057573], [106.94693756082404, 47.96997451802747], [106.95077514630798, 47.97130966169749], [106.95460510235525, 47.97258758504784], [106.96274566631638, 47.97528076158934], [106.96907806350696, 47.97744750935633], [106.97319030776356, 47.978836059233814], [106.97585296591066, 47.97961425786338], [106.98371887151563, 47.98169708260335], [106.99555206278728, 47.98486328089261], [106.99965667686965, 47.985862732043124], [106.98935699453234, 47.99428176874575], [106.99340820360317, 48.0009460447759], [107.00010681107217, 48.012805938852715], [107.00593566843013, 48.01669692967771], [107.00840759282427, 48.01833343471821], [107.01940918011603, 48.02566528357134], [107.02646636917915, 48.030387878180164], [107.03865814145036, 48.038581848209], [107.03676605167728, 48.045303344680875], [107.0313568109168, 48.06343078579761], [107.0299682617833, 48.067424774383404], [107.02909851111708, 48.07254409829604], [107.0255813600538, 48.09211730937132], [107.02471923849079, 48.09706497179595], [107.02432250998042, 48.098930358482484], [107.01634216285731, 48.10978317255371], [107.01017761188164, 48.118286132832736], [107.00154113750143, 48.13005065900776], [106.99868011485088, 48.13542938208957], [106.9956359864397, 48.13994598395804], [106.98196411191407, 48.15986633279349], [106.96725463911537, 48.18117523183302], [106.96025085513155, 48.1910476681942], [106.96094512875467, 48.191097259677356], [106.96846008347387, 48.199874878019614], [106.99552154522976, 48.21071624725688], [107.00007629338587, 48.20803451546515], [107.00299072221476, 48.206226349310455], [107.03091430622565, 48.1863174442562], [107.05239868154187, 48.189533233386214], [107.06624603211012, 48.19797515863992], [107.08177184992694, 48.208026885981035]]]}}, {"type": "Feature", "properties": {"aimag_code": 11, "sum_code": 1119, "name_mn": "Сүхбаатар", "name_en": "Suxbaatar"}, "geometry": {"type": "Polygon", "coordinates": [[[106.96025085513155, 48.1910476681942], [106.96725463911537, 48.18117523183302], [106.98196411191407, 48.15986633279349], [106.9956359864397, 48.13994598395804], [106.99868011485088, 48.13542938208957], [107.00154113750143, 48.13005065900776], [107.01017761188164, 48.118286132832736], [107.01634216285731, 48.10978317255371], [107.02432250998042, 48.098930358482484], [107.02471923849079, 48.09706497179595], [107.0255813600538, 48.09211730937132], [107.02909851111708, 48.07254409829604], [107.0299682617833, 48.067424774383404], [107.0313568109168, 48.06343078579761], [107.03676605167728, 48.045303344680875], [107.03865814145036, 48.038581848209], [107.02646636917915, 48.030387878180164], [107.01940918011603, 48.02566528357134], [107.00840759282427, 48.01833343471821], [107.00593566843013, 48.01669692967771], [107.00010681107217, 48.012805938852715], [106.99340820360317, 48.0009460447759], [106.98935699453234, 47.99428176874575], [106.99965667686965, 47.985862732043124], [106.99555206278728, 47.98486328089261], [106.98371887151563, 47.98169708260335], [106.97585296591066, 47.97961425786338], [106.97319030776356, 47.978836059233814], [106.96907806350696, 47.97744750935633], [106.96274566631638, 47.97528076158934], [106.95460510235525, 47.97258758504784], [106.95077514630798, 47.97130966169749], [106.94693756082404, 47.96997451802747], [106.94094085633493, 47.96792221057573], [106.93738555879123, 47.966419219930984], [106.93341064490804, 47.96461486775547], [106.93157959023168, 47.964115142991275], [106.92607879610033, 47.96255874640474], [106.92874908466172, 47.951004028475054], [106.92710876413625, 47.950420379657444], [106.92549896304304, 47.946533203042186], [106.92505645806214, 47.943088531449845], [106.92716217073838, 47.94009017902295], [106.92913818309322, 47.93445205685389], [106.93108367857566, 47.929672241396915], [106.93083190921811, 47.92047882110734], [106.9278869626162, 47.91775894155781], [106.92966461185256, 47.90903472862993], [106.9249343867711, 47.90892028798852], [106.92478179928125, 47.90913391069957], [106.91339111263498, 47.90871810882368], [106.91333770716282, 47.90856170693341], [106.89546203598599, 47.9082679753008], [106.89485931436347, 47.913970947000266], [106.89489746093066, 47.914024352831966], [106.89561462372777, 47.914024352987916], [106.91864013731079, 47.916667938624485], [106.91709899963652, 47.92834091160262], [106.90431976367503, 47.92705535889784], [106.90364074709491, 47.930042266958935], [106.9102935793123, 47.93872833226219], [106.91190338165143, 47.951049804396746], [106.9123535162387, 47.95426559489389], [106.91378784130784, 47.96128463735539], [106.91711425770494, 47.96844863848767], [106.92227935851724, 47.9794731136241], [106.92236328158893, 47.99246978759457], [106.92256164577431, 48.00028228718399], [106.91957092276022, 48.0081176756249], [106.91463470395391, 48.02089309688611], [106.9095916744056, 48.03383255006767], [106.8950653077271, 48.070400238033784], [106.88914489763877, 48.09146499590335], [106.88522338842492, 48.10571670548503], [106.88838958689895, 48.11920928915493], [106.88480377183596, 48.12622833295958], [106.8884582517821, 48.13937759413227], [106.86832427996247, 48.153144835982545], [106.8702545163132, 48.1709823606427], [106.8716049199624, 48.17728424032452], [106.87355804486303, 48.184036254914574], [106.87455749548322, 48.185291290492664], [106.87498474102313, 48.18502807643247], [106.9037933345001, 48.18714904764116], [106.94715881339192, 48.19012832609127], [106.96025085513155, 48.1910476681942]]]}}, {"type": "Feature", "properties": {"aimag_code": 11, "sum_code": 1125, "name_mn": "Чингэлтэй", "name_en": "Chingeltei"}, "geometry": {"type": "Polygon", "coordinates": [[[106.86832427996247, 48.153144835982545], [106.8884582517821, 48.13937759413227], [106.88480377183596, 48.12622833295958], [106.88838958689895, 48.11920928915493], [106.88522338842492, 48.10571670548503], [106.88914489763877, 48.09146499590335], [106.8950653077271, 48.070400238033784], [106.9095916744056, 48.03383255006767], [106.91463470395391, 48.02089309688611], [106.91957092276022, 48.0081176756249], [106.92256164577431, 48.00028228718399], [106.92236328158893, 47.99246978759457], [106.92227935851724, 47.9794731136241], [106.91711425770494, 47.96844863848767], [106.91378784130784, 47.96128463735539], [106.9123535162387, 47.95426559489389], [106.91190338165143, 47.951049804396746], [106.9102935793123, 47.93872833226219], [106.90364074709491, 47.930042266958935], [106.90431976367503, 47.92705535889784], [106.91709899963652, 47.92834091160262], [106.91864013731079, 47.916667938624485], [106.89561462372777, 47.914024352987916], [106.89489746093066, 47.914024352831966], [106.89988708500158, 47.921245574930566], [106.89148712110709, 47.93054962125203], [106.88758087109741, 47.94029998797073], [106.86297607359295, 47.95005416863182], [106.86440277146022, 47.96168136602775], [106.86560058641902, 47.968883514760016], [106.8561477660256, 47.98268508942698], [106.85937500055202, 48.003616333099885], [106.8628311151275, 48.021469116380565], [106.85404968195812, 48.04405212374466], [106.85089874271078, 48.05170440684299], [106.83807373084963, 48.08613586446711], [106.83071899448855, 48.10399246255271], [106.8472976683459, 48.125522613377015], [106.86830139175142, 48.15297698970172], [106.86832427996247, 48.153144835982545]]]}}, {"type": "Feature", "properties": {"aimag_code": 11, "sum_code": 1113, "name_mn": "Налайх", "name_en": "Nalaix"}, "geometry": {"type": "Polygon", "coordinates": [[[107.47607421853932, 47.65134429933021], [107.47152709908772, 47.64984893759454], [107.41000366207564, 47.645767211978864], [107.3298645016637, 47.65104293850768], [107.29694366516499, 47.646957397222685], [107.29557037411675, 47.66486358598379], [107.29464721652522, 47.66761398335591], [107.25066375708948, 47.6987762452341], [107.21614837597114, 47.72399520881795], [107.21603393487243, 47.72408294643568], [107.22260284372607, 47.74740219116189], [107.22577667264768, 47.75899124186217], [107.22631835988611, 47.76082611097955], [107.21958160350664, 47.77865600626869], [107.22824859645158, 47.80554962146131], [107.23107147251427, 47.81431961018243], [107.26356506411162, 47.807384490920974], [107.29115295425342, 47.80158996591302], [107.30116272029682, 47.82348251344894], [107.31240081763677, 47.84799957243573], [107.31740570101324, 47.858646392992235], [107.33880615216216, 47.86805725057866], [107.36272430413133, 47.878311157446895], [107.36956024184025, 47.89584350600369], [107.37158966024148, 47.90134429919101], [107.38922882075268, 47.918777465557135], [107.40531921325956, 47.93645858768427], [107.41077423096756, 47.942108154211546], [107.37347412044132, 47.957908630734586], [107.36411285456659, 47.96171951289241], [107.37005615215534, 47.98113632183926], [107.37164306625962, 47.98628616333102], [107.37276458778011, 47.990165710831654], [107.40427398706467, 47.9925651546391], [107.4390792844665, 47.99533462512323], [107.44556427056996, 47.99587249790231], [107.45532989468238, 48.00058364881818], [107.45701599166301, 48.000007629606], [107.45727539117905, 47.99919128455461], [107.45711517336174, 47.99811553928605], [107.45740509098493, 47.99744033805256], [107.45764923134259, 47.99635314957199], [107.45719146693318, 47.99521636981091], [107.45686340310264, 47.99448776255017], [107.45740509090977, 47.99346542378401], [107.45907592709334, 47.99248504596897], [107.46192932120078, 47.99168014501129], [107.46369171082544, 47.99050140339509], [107.46421814006098, 47.989139556631585], [107.46491241407188, 47.98851776107272], [107.46591949441562, 47.98876571620923], [107.46862792977565, 47.98884201068144], [107.47068023734957, 47.9880561824368], [107.47216796831894, 47.987220764152184], [107.47337341360151, 47.98719406100544], [107.47531890869583, 47.98694992085229], [107.47657012909896, 47.9862480162052], [107.4770965575292, 47.98434829729781], [107.47736358581523, 47.983737945979854], [107.47805786082887, 47.983722686737096], [107.47886657647251, 47.983840941977256], [107.4799118047852, 47.98442459126722], [107.48110961862399, 47.98426437414432], [107.48353576608245, 47.98286437971204], [107.48724365245272, 47.9808998106479], [107.48902893018449, 47.98018646198707], [107.49024200449239, 47.98029327372033], [107.49175262408608, 47.98052978533373], [107.4936294550473, 47.979885101539935], [107.49419403126471, 47.97892761206527], [107.49416351319309, 47.97819137585657], [107.49337005675412, 47.97685623175977], [107.49346923807276, 47.9765853878675], [107.4948730463454, 47.976284027513714], [107.49571228057451, 47.97532272328552], [107.49595642031755, 47.974311828376635], [107.49594116238644, 47.97343444799429], [107.496406555744, 47.97315216035508], [107.49827575748508, 47.972473144862846], [107.50074005165189, 47.973499298230465], [107.50166320861183, 47.97325134320557], [107.50265502867, 47.972663879566085], [107.5033187864756, 47.97201919575197], [107.50413513125679, 47.97171783447191], [107.50526428200129, 47.97180175802593], [107.50796508753436, 47.97168731668654], [107.50989532482387, 47.97118759177518], [107.5110626222887, 47.97093582118598], [107.51145935075523, 47.970298767149046], [107.5127410895385, 47.9702148440774], [107.51386260989631, 47.97070312479349], [107.51549529980936, 47.9711799618232], [107.51817321762465, 47.97112274129843], [107.51892089821871, 47.97270202637573], [107.51982116722722, 47.97359466562923], [107.5204086304495, 47.97358322161452], [107.52368926948762, 47.97276687632382], [107.52588653607646, 47.97272109951922], [107.52743530301196, 47.97268676717608], [107.52864074698013, 47.973285674902606], [107.52973175025711, 47.97463226320456], [107.53259277340048, 47.975708007897126], [107.53385925242455, 47.975914001292026], [107.53597259504711, 47.975807189749034], [107.53719329781912, 47.97600936886434], [107.53787231422149, 47.976219177007756], [107.5387878418415, 47.97751235990335], [107.53948974570042, 47.978179931686384], [107.54077911369454, 47.978153228553836], [107.54194641078772, 47.9779548645037], [107.54266357404832, 47.97668457020773], [107.54304504370708, 47.97633361837077], [107.54374694878732, 47.97637939491176], [107.54544067409705, 47.97657012952978], [107.54684448259002, 47.97727584849135], [107.54788207954981, 47.978279113435846], [107.54917144825033, 47.97882080117174], [107.55128478971372, 47.978832244827835], [107.55245971725641, 47.978179931324334], [107.55358886782251, 47.97718429562341], [107.5549392695162, 47.97686767584893], [107.55713653579778, 47.97681808490185], [107.55908966045664, 47.9767189027537], [107.56042480427575, 47.976177215872674], [107.56185913022439, 47.97591781590421], [107.56389617947232, 47.97587203975719], [107.56475067091769, 47.97585296612451], [107.56594848637916, 47.97622680626033], [107.56646728512769, 47.97644424432737], [107.56714630150435, 47.97602462792261], [107.56913757366593, 47.97512435918907], [107.5695419309075, 47.974662781089684], [107.56950378452153, 47.97397994954686], [107.56811523483411, 47.97343826299998], [107.56782531762477, 47.973045349445115], [107.56808471743335, 47.97292709360952], [107.5685195923082, 47.97303009064904], [107.57059478752326, 47.97384262068864], [107.57212066689202, 47.97380828821138], [107.5727081300911, 47.97368240393468], [107.57344818070203, 47.973033905468526], [107.57420349091554, 47.97312927278321], [107.57559967058154, 47.97361373918128], [107.5775756839101, 47.97362518272542], [107.57830047659864, 47.9724731447637], [107.5783615113125, 47.97217941255709], [107.5786285406064, 47.97217559801124], [107.57933807347072, 47.97290420529723], [107.58052062951882, 47.97293090802598], [107.58129119856581, 47.972858428849456], [107.58203125058586, 47.97204208370085], [107.58217620896119, 47.97175216635658], [107.58319091824474, 47.97172927867537], [107.58419799846403, 47.9715347291682], [107.58483886740221, 47.9710083005768], [107.58591461246928, 47.96990585292776], [107.58731079129561, 47.968902587637835], [107.58848571731114, 47.968814850126925], [107.589210510918, 47.96839904779939], [107.58978271539586, 47.96753311146186], [107.59060668888148, 47.967285155881704], [107.5921325687413, 47.967365265004716], [107.59302520791334, 47.96802902184624], [107.59427642784209, 47.96891403158498], [107.59578704837553, 47.96859359774688], [107.59622955324136, 47.967899322819626], [107.59700012217102, 47.96617126459394], [107.59782409618943, 47.96387100262385], [107.59934234649062, 47.962066650452655], [107.59941863996339, 47.961494446063796], [107.59935760525745, 47.96030044575268], [107.59885406489752, 47.95882797231566], [107.59667205824567, 47.95687866180768], [107.59162139869585, 47.95288848921453], [107.58982086169117, 47.95058822592736], [107.58924102769798, 47.949119567466404], [107.58939361560641, 47.94740295410647], [107.59031677287253, 47.942764282525836], [107.59165191592096, 47.94061660803286], [107.59522247301769, 47.93711853023643], [107.59638977090259, 47.93526840189876], [107.59717559864663, 47.933822631661364], [107.59704589780434, 47.93291473348831], [107.59651947071845, 47.93087005570655], [107.59768676708168, 47.92645645174686], [107.6009597775286, 47.918506622632705], [107.60383606007159, 47.91513443002124], [107.60588073752747, 47.9137763979846], [107.60815429693004, 47.913608550888945], [107.6100540165869, 47.91419219965412], [107.61193847678186, 47.91437911958105], [107.61251068131223, 47.914138794054615], [107.61273956258195, 47.913330077803934], [107.61269378604942, 47.911849975578505], [107.6130599980634, 47.910701752088684], [107.61527252250904, 47.90893936143364], [107.61841583195124, 47.90750122041734], [107.62100982727452, 47.906467437434785], [107.62113952596494, 47.905899048271635], [107.62030792212748, 47.904769897085764], [107.61737060555076, 47.90164947484143], [107.61614990179199, 47.89928054848686], [107.61599731467533, 47.89722824061057], [107.61742401111105, 47.895313263186], [107.61816406237574, 47.894615173788836], [107.61811065657099, 47.89364624034007], [107.61489868115252, 47.89080810509461], [107.61230468778227, 47.8881874086466], [107.61130523657147, 47.88637924219998], [107.61091613771424, 47.884056091462725], [107.61048126246125, 47.88229751607674], [107.60923004159531, 47.88180923447286], [107.6083679193843, 47.881145477085866], [107.60743713319313, 47.879741668466444], [107.60610198994796, 47.878631591950075], [107.60597991947822, 47.87777709944965], [107.60643768367582, 47.876792908157036], [107.60707855240177, 47.8757553096321], [107.60704803443909, 47.875183105873646], [107.60609436022423, 47.87475204440703], [107.60296630839817, 47.874763488359996], [107.60200500438164, 47.87427139290329], [107.60083770767888, 47.873386382961634], [107.60046386776243, 47.872310638244535], [107.59931182814061, 47.87176513674061], [107.59779357875442, 47.871860504493576], [107.59577941846577, 47.87224578818951], [107.59410858133761, 47.87245559703046], [107.59281921394754, 47.8723716733969], [107.59066772476464, 47.871620178625236], [107.58359527548525, 47.866531371818375], [107.57929229712704, 47.863777160532436], [107.5737457275716, 47.86082077032138], [107.5696563727212, 47.859260558769584], [107.5664138793441, 47.85858535743842], [107.56510162411776, 47.857986450198396], [107.5640411381267, 47.857097625895555], [107.56420135484645, 47.856525421125504], [107.56441497791126, 47.85595321651698], [107.56423187306173, 47.855442047027005], [107.56379699722656, 47.8553352352455], [107.56313324023549, 47.85552597090024], [107.56246185324697, 47.85594177215892], [107.56172943087881, 47.856300354111596], [107.5607986450978, 47.8563156130664], [107.55957031255886, 47.85588836673387], [107.5579299922577, 47.85512924187186], [107.5566253665801, 47.854129791154776], [107.55518341074632, 47.85250473034139], [107.55503845168971, 47.850624084637744], [107.56000518821014, 47.835403442318515], [107.55627441347897, 47.82629776024446], [107.55499267596893, 47.82313156163959], [107.5524291989907, 47.8171272275359], [107.54853820823787, 47.806961059898235], [107.54177856494884, 47.79090881369601], [107.53910827591186, 47.78435516322015], [107.5388183588249, 47.774662018282896], [107.53817749042929, 47.75875472981161], [107.53762054488037, 47.745536804387164], [107.53221130420354, 47.74291992215084], [107.51795196539183, 47.73644638101013], [107.50186157218273, 47.72903823836431], [107.49971771280555, 47.728225708216], [107.49766540579476, 47.72723007181134], [107.4831771843873, 47.720260619747805], [107.47679138202265, 47.66147232100639], [107.47617340145779, 47.65462875376936], [107.47528076221802, 47.652057647989174], [107.47607421853932, 47.65134429933021]]]}}, {"type": "Feature", "properties": {"aimag_code": 11, "sum_code": 1107, "name_mn": "Баянгол", "name_en": "Bayangol"}, "geometry": {"type": "Polygon", "coordinates": [[[106.89489746093066, 47.914024352831966], [106.89485931436347, 47.913970947000266], [106.89546203598599, 47.9082679753008], [106.91333770716282, 47.90856170693341], [106.91255950875016, 47.906520843447254], [106.91052246102844, 47.905948638676385], [106.90634155256133, 47.90448379560754], [106.90007019001933, 47.90239334096483], [106.89610290501498, 47.90187072721894], [106.89286041302535, 47.90197753862633], [106.87928009017071, 47.90323257410914], [106.87123107954463, 47.904903411420015], [106.86835479760958, 47.90505981461719], [106.86250305191953, 47.90391159101736], [106.84536743159629, 47.90087890597579], [106.84014892610138, 47.897640227994984], [106.82912445097283, 47.89591598489079], [106.81470489441145, 47.88316726700164], [106.81021118134399, 47.88139343250497], [106.7999725339979, 47.87689971899145], [106.794273377109, 47.87548828140401], [106.78873443646832, 47.874233245987966], [106.78518676782599, 47.87402725186988], [106.78471374545362, 47.87412261969182], [106.78580474892841, 47.90387344359796], [106.7864532474538, 47.90631484954425], [106.79231262229305, 47.907127380132366], [106.79784393330736, 47.90810394327785], [106.79882049589887, 47.90956878662078], [106.80061340387478, 47.910709381143825], [106.80288696239072, 47.910545349543106], [106.80792999312614, 47.90973281893016], [106.81085968021402, 47.90924453700834], [106.82192230219145, 47.90989303545067], [106.83380126994136, 47.910869598445444], [106.85332489037577, 47.91249847393988], [106.85308074977027, 47.915672302433926], [106.8524322508582, 47.92462158173345], [106.85276031430752, 47.93145370454082], [106.85340881303834, 47.93812561006363], [106.85471344025152, 47.9412155153186], [106.85633850101677, 47.942356109713664], [106.85975646981312, 47.943332672149914], [106.86382293640868, 47.94333267175395], [106.87619018598294, 47.94186782836839], [106.88758087109741, 47.94029998797073], [106.89148712110709, 47.93054962125203], [106.89988708500158, 47.921245574930566], [106.89489746093066, 47.914024352831966]]]}}, {"type": "Feature", "properties": {"aimag_code": 11, "sum_code": 1122, "name_mn": "Хан-Уул", "name_en": "Xan-Uul"}, "geometry": {"type": "Polygon", "coordinates": [[[106.9249343867711, 47.90892028798852], [106.93460846010416, 47.8950271607647], [106.94442748977542, 47.88029479981797], [106.95618438682452, 47.862480163651234], [106.95116424589474, 47.851924896250175], [106.94223022435125, 47.831081390122385], [106.93695831259993, 47.81880188024118], [106.93914794896033, 47.80438232403109], [106.94317627019123, 47.779251098752106], [106.94653320289021, 47.75978851277146], [106.9057464596346, 47.748687743805306], [106.86219787664807, 47.76248168968685], [106.84040069607786, 47.746509551924625], [106.79733276391758, 47.70490264849783], [106.7880477908243, 47.723258971811546], [106.73216247606952, 47.71983718900845], [106.69635009811302, 47.7286758426817], [106.69625854553838, 47.728698730284655], [106.69614410446063, 47.728771209366], [106.68360900935605, 47.735340118719314], [106.6434860226854, 47.7415199277751], [106.64105987505951, 47.74145889263341], [106.60131835999447, 47.74654006978448], [106.58937835695328, 47.751319885487035], [106.58567809995944, 47.74980163595585], [106.58081054673511, 47.752029418588805], [106.57767486547752, 47.749813080028495], [106.59322357120107, 47.73653411864663], [106.5608444216035, 47.71055602993645], [106.55673980655018, 47.71139907825127], [106.50905609106104, 47.718711852819844], [106.50883483893129, 47.72402191126282], [106.50680542045811, 47.751651764313905], [106.50488281260964, 47.77829360920539], [106.50309753441907, 47.805233001875926], [106.51782989560296, 47.82232666051643], [106.53976440418914, 47.84708404509625], [106.53974151632119, 47.84711456295736], [106.53958129866558, 47.84730148347484], [106.54448699998872, 47.84722518921015], [106.58377838072252, 47.84941864039282], [106.59652709967594, 47.849941253785], [106.61318969712536, 47.850830077795855], [106.61830902155485, 47.85835266114794], [106.63001251205306, 47.869220733495844], [106.63842773462493, 47.87104797345291], [106.6477279668569, 47.874183654524096], [106.65848541197452, 47.874076843178514], [106.66256713830803, 47.87387084921857], [106.67196655271825, 47.8723030093774], [106.67453002975576, 47.87162399334166], [106.68288421618648, 47.86786270145777], [106.69041442935585, 47.86597824094185], [106.6981430055083, 47.86608505265089], [106.70368194515105, 47.867443084367906], [106.70964050311885, 47.86974334674214], [106.71412658681885, 47.870994567768825], [106.7227478031416, 47.873554230044654], [106.7293319696737, 47.875331878931455], [106.73664855957118, 47.875957488664554], [106.74699401857086, 47.87648010285429], [106.75222015444974, 47.8784675598673], [106.7550888059213, 47.87831115690051], [106.76031494169565, 47.876533507969064], [106.76428222631768, 47.87559127770343], [106.76846313446283, 47.87590789783384], [106.77222442565262, 47.87632369976889], [106.77494049115974, 47.876220703145414], [106.77902221654992, 47.87527847269159], [106.78471374545362, 47.87412261969182], [106.78518676782599, 47.87402725186988], [106.78873443646832, 47.874233245987966], [106.794273377109, 47.87548828140401], [106.7999725339979, 47.87689971899145], [106.81021118134399, 47.88139343250497], [106.81470489441145, 47.88316726700164], [106.82912445097283, 47.89591598489079], [106.84014892610138, 47.897640227994984], [106.84536743159629, 47.90087890597579], [106.86250305191953, 47.90391159101736], [106.86835479760958, 47.90505981461719], [106.87123107954463, 47.904903411420015], [106.87928009017071, 47.90323257410914], [106.89286041302535, 47.90197753862633], [106.89610290501498, 47.90187072721894], [106.90007019001933, 47.90239334096483], [106.90634155256133, 47.90448379560754], [106.91052246102844, 47.905948638676385], [106.91255950875016, 47.906520843447254], [106.91333770716282, 47.90856170693341], [106.91339111263498, 47.90871810882368], [106.92478179928125, 47.90913391069957], [106.9249343867711, 47.90892028798852]]]}}, {"type": "Feature", "properties": {"aimag_code": 11, "sum_code": 1104, "name_mn": "Багахангай", "name_en": "Bagaxangai"}, "geometry": {"type": "Polygon", "coordinates": [[[107.48799133306197, 47.43624877899142], [107.48931121864032, 47.43381881676614], [107.49539184508427, 47.424468994285135], [107.49854278573098, 47.41943740855397], [107.500030518204, 47.41719055172431], [107.5004653932441, 47.416912078978164], [107.50526428167458, 47.4091300965646], [107.51631927450381, 47.39086151107741], [107.51871490499856, 47.387199401445635], [107.52901458763705, 47.370468139915175], [107.54085540811047, 47.35131073011187], [107.55102539032187, 47.33489990252598], [107.55165863096218, 47.333747863567304], [107.5523834233187, 47.33279800400307], [107.55368804950373, 47.331405639427125], [107.55374145545412, 47.33074569696732], [107.54483032213815, 47.32883453382096], [107.53233337347851, 47.326339722007305], [107.52967071517581, 47.32557296777499], [107.51866149892163, 47.32329559350106], [107.50858306898525, 47.32104110755491], [107.50029754694094, 47.319290161341605], [107.49858093221151, 47.31872177104539], [107.47193145811038, 47.31301498411284], [107.43447113046983, 47.30534744301745], [107.41729736386921, 47.301803588442255], [107.39442443850741, 47.332225799942854], [107.39344787637897, 47.33350372329363], [107.39228820789496, 47.33531570405447], [107.3882904056245, 47.34069061308894], [107.37625122033441, 47.356540679871756], [107.37025451696826, 47.36463928185541], [107.36251068103138, 47.37499618517535], [107.35750579887151, 47.38212585423726], [107.35070800806861, 47.390747070507445], [107.34638977004838, 47.39715576208662], [107.34716796906781, 47.39921188340335], [107.353050231981, 47.41471862820205], [107.35664367679006, 47.42389297472877], [107.36670684850945, 47.42728805530514], [107.37814331089712, 47.43159866321472], [107.40004730216418, 47.43920898463461], [107.40145111091263, 47.4397697452098], [107.42135620157802, 47.43441772498217], [107.42575073268533, 47.433200835928325], [107.42810058586403, 47.43241500897305], [107.42932891802998, 47.432506560864844], [107.44358825696338, 47.433498382966526], [107.45153808530537, 47.433982849079406], [107.46919250499396, 47.435050964009775], [107.4779357909851, 47.435569763187075], [107.48799133306197, 47.43624877899142]]]}}]}